{
"type": "FeatureCollection",
"name": "london_theft_hotspots",
"crs": { "type": "name", "properties": { "name": "urn:ogc:def:crs:OGC:1.3:CRS84" } },
"features": [
{"type":"Feature","properties":{"hotspot_id":2,"cell_count":267,"mean_density":0.0050105104761329552,"max_density":0.007360068148378523,"incident_count":794,"area_m2":108442.77482915063},"geometry":{"type":"Polygon","coordinates":[[[-0.095999203041743,51.512513479656846],[-0.095991651514481,51.512694586184658],[-0.096572153221815,51.512704008585949],[-0.09656460391498,51.512885115168118],[-0.097145108236993,51.51289453475885],[-0.097137561150635,51.513075641395332],[-0.097718068087266,51.513085058175456],[-0.097710523221438,51.513266164866216],[-0.098000777957636,51.51327087220988],[-0.097993234162696,51.513451978924579],[-0.098283490127373,51.513456685580728],[-0.098268404600543,51.513818899051579],[-0.098558662943417,51.513823605050561],[-0.098520953496436,51.514729138767052],[-0.098230689404802,51.51472443261634],[-0.098215602775019,51.515086645997314],[-0.097925336462586,51.515081939068018],[-0.097917791879702,51.515263045718513],[-0.097337257191628,51.515253629645521],[-0.097329710230303,51.515434736228904],[-0.09558810115935,51.5154064705983],[-0.095595655019574,51.515225364197185],[-0.095015121593265,51.515215936637944],[-0.095022677674194,51.515034830291178],[-0.094732412229212,51.515030115465152],[-0.094739969381009,51.514849009142381],[-0.094159441027423,51.514839577397424],[-0.094167000399835,51.514658471129025],[-0.093876737491239,51.514653754210173],[-0.093884297934458,51.514472647965782],[-0.093303774653685,51.514463212035224],[-0.093311337317432,51.514282105845268],[-0.093021076945266,51.514277386833626],[-0.093028640679758,51.514096280667637],[-0.092738381536322,51.514091560968566],[-0.092745946341536,51.513910454826622],[-0.092455688426827,51.513905734440108],[-0.092463254302738,51.513724628322151],[-0.092172997616755,51.513719907248245],[-0.092180564563339,51.513538801154333],[-0.09189030910608,51.513534079393018],[-0.091928148401852,51.51262854897918],[-0.092218398110831,51.512633270588275],[-0.092225964583251,51.512452164455809],[-0.095999203041743,51.512513479656846]]]}},
{"type":"Feature","properties":{"hotspot_id":4,"cell_count":222,"mean_density":0.005246953043646801,"max_density":0.0074455779865111905,"incident_count":620,"area_m2":90165.90266692228},"geometry":{"type":"Polygon","coordinates":[[[-0.082495700643518,51.515918074642322],[-0.082488094645601,51.516099179639092],[-0.082778364813673,51.51610392483007],[-0.08277075988615,51.51628502985097],[-0.083061031283491,51.516289774354654],[-0.083053427426387,51.516470879399733],[-0.083343700052997,51.516475623216088],[-0.083298082141864,51.51756225353499],[-0.083007802615896,51.517557509535074],[-0.082992593710328,51.517919719528763],[-0.082702311963908,51.517914974749736],[-0.082694706242023,51.518096079706325],[-0.082404423425088,51.518091334178763],[-0.082396816473793,51.518272439098318],[-0.082106532586345,51.518267692822221],[-0.082098924405613,51.518448797704735],[-0.081808639447654,51.518444050680074],[-0.081801030037464,51.518625155525555],[-0.080930172190557,51.518610910051947],[-0.080922559250885,51.518792014799139],[-0.079471125346569,51.518768257830743],[-0.07947874403622,51.518587153236759],[-0.078898173331447,51.518577645484967],[-0.07890579424148,51.518396540945822],[-0.078615510158467,51.518391786023678],[-0.078623132138867,51.518210681508755],[-0.078332849285431,51.518205925899295],[-0.078348095307291,51.5178437169115],[-0.078057814833372,51.517838960645442],[-0.078080686718755,51.517295647207462],[-0.078370963742927,51.517300403381547],[-0.078393831462001,51.516757089793629],[-0.078684105116146,51.516761845157788],[-0.078691726380083,51.516580740584935],[-0.078981998963972,51.516585495200538],[-0.078989618998462,51.516404390590608],[-0.079279890512091,51.51640914445764],[-0.079287509317157,51.516228039810613],[-0.079577779760528,51.516232792929088],[-0.079585397336193,51.516051688244993],[-0.080165936161961,51.516061192266982],[-0.080173551358435,51.51588008751515],[-0.082495700643518,51.515918074642322]]]}},
{"type":"Feature","properties":{"hotspot_id":1,"cell_count":215,"mean_density":0.0044411294606914887,"max_density":0.0056029328723761294,"incident_count":469,"area_m2":87322.83366389852},"geometry":{"type":"Polygon","coordinates":[[[-0.085931609534608,51.510174857869501],[-0.08592401872218,51.51035596340833],[-0.086504487306075,51.510365435324047],[-0.086496898713302,51.51054654091751],[-0.0867871342736,51.510551275829258],[-0.086779546751055,51.510732381446822],[-0.087069783540073,51.510737115671333],[-0.087047023945494,51.51128043257701],[-0.08733726426226,51.511285166175327],[-0.087306921625079,51.512009588748299],[-0.087016676710124,51.512004855027925],[-0.086971153479926,51.513091488511378],[-0.086680901746573,51.513086753889993],[-0.086673313114544,51.513267859417553],[-0.086383060310798,51.513263124047832],[-0.086375470449852,51.513444229538415],[-0.086085216575717,51.513439493420329],[-0.086077625485833,51.513620598873949],[-0.084626351556291,51.513596907363272],[-0.084633948394508,51.513415802062418],[-0.084343694996247,51.513411061637335],[-0.084351292904774,51.513229956360597],[-0.084061040735516,51.513225215248262],[-0.084068639714329,51.513044109995668],[-0.083778388774072,51.513039368196075],[-0.083801188683173,51.512496052491436],[-0.083510941271128,51.512491310065748],[-0.083541344637002,51.511766889158494],[-0.083251101902619,51.511762146137336],[-0.083311914020172,51.510313304258737],[-0.083602147558577,51.510318047035256],[-0.083609747566592,51.510136941740896],[-0.085931609534608,51.510174857869501]]]}},
{"type":"Feature","properties":{"hotspot_id":3,"cell_count":12,"mean_density":0.0034884446858702198,"max_density":0.0035522195140116077,"incident_count":93,"area_m2":4873.8325765935306},"geometry":{"type":"Polygon","coordinates":[[[-0.088568620899224,51.516560889147762],[-0.088561038810282,51.516741994766782],[-0.088851314093488,51.516746724973302],[-0.088836151977824,51.517108936253067],[-0.088545874394815,51.517104205985525],[-0.088538292068287,51.517285311585262],[-0.087957734840032,51.517275848835411],[-0.087965319466395,51.517094743296695],[-0.08767504212101,51.517090010875386],[-0.087690213435874,51.516727799839686],[-0.087980488481463,51.516732532199974],[-0.087988072870169,51.516551426641982],[-0.088568620899224,51.516560889147762]]]}}
]
}
